{
  "norad_id": 28526,
  "name": "NSS-10",
  "history": [
    {
      "epoch": "2026-03-28T19:44:27.356640",
      "apogee_km": 35800.30422837659,
      "perigee_km": 35772.7959865077,
      "latitude_deg": -6.247747371553436,
      "longitude_deg": -8.436270399717614,
      "semi_major_axis_km": 42164.68710744215,
      "eccentricity": 0.0003262,
      "inclination_deg": 6.2498,
      "raan_deg": 71.4127,
      "arg_perigee_deg": 291.222,
      "mean_anomaly_deg": 82.2564,
      "mean_motion_rev_day": 1.00271945
    }
  ]
}